QIANFAN-9               
1 60387U 24140J   25335.42665052  .00000080  00000+0  10521-3 0  9992
2 60387  88.9752 300.5076 0014559 226.9047 133.0887 13.50979020 65805
QIANFAN-10              
1 60388U 24140K   25335.43084178  .00000082  00000+0  10850-3 0  9995
2 60388  88.9762 299.8532 0013566 201.4424 158.6160 13.50979655 65933
QIANFAN-11              
1 60389U 24140L   25335.46789823  .00000077  00000+0  10075-3 0  9991
2 60389  88.9687 300.4451 0012605 225.8592 134.1523 13.50975863 65599
QIANFAN-12              
1 60390U 24140M   25335.41433583  .00000096  00000+0  12956-3 0  9998
2 60390  88.9731 300.4891 0011290 235.0659 124.9432 13.50976588 65710
QIANFAN-13              
1 60391U 24140N   25335.45960194  .00000090  00000+0  12029-3 0  9991
2 60391  88.9743 300.5829 0011083 237.9671 122.0404 13.50977088 65748
QIANFAN-14              
1 60392U 24140P   25335.48419024  .00000080  00000+0  10551-3 0  9993
2 60392  88.9722 300.4804 0014763 238.5563 121.4145 13.50976661 65755
QIANFAN-15              
1 60393U 24140Q   25335.41840534  .00000099  00000+0  13456-3 0  9998
2 60393  88.9745 300.4410 0010786 221.8837 138.1489 13.50975456 65739
QIANFAN-16              
1 60394U 24140R   25335.48027006  .00000082  00000+0  10867-3 0  9992
2 60394  88.9748 300.5544 0012666 242.6817 117.3045 13.50975567 65651
